$$SOE
2460147.500000000, A.D. 2023-Jul-22 00:00:00.0000, -2.104484410117650E+08, -3.529490178851488E+08, -6.345277856120576E+07,
2460154.500000000, A.D. 2023-Jul-29 00:00:00.0000, -2.003616387826852E+08, -3.579367638368021E+08, -6.394551981196600E+07,
2460161.500000000, A.D. 2023-Aug-05 00:00:00.0000, -1.901389678263081E+08, -3.626816873212705E+08, -6.439487650762677E+07,
2460168.500000000, A.D. 2023-Aug-12 00:00:00.0000, -1.797867853994341E+08, -3.671794643320172E+08, -6.480034718722567E+07,
2460175.500000000, A.D. 2023-Aug-19 00:00:00.0000, -1.693116175552091E+08, -3.714259484624516E+08, -6.516146422758950E+07,
2460182.500000000, A.D. 2023-Aug-26 00:00:00.0000, -1.587201534382006E+08, -3.754171788708231E+08, -6.547779496065737E+07,
2460189.500000000, A.D. 2023-Sep-02 00:00:00.0000, -1.480192391371759E+08, -3.791493881235187E+08, -6.574894275009899E+07,
2460196.500000000, A.D. 2023-Sep-09 00:00:00.0000, -1.372158710651422E+08, -3.826190099277879E+08, -6.597454802925608E+07,
2460203.500000000, A.D. 2023-Sep-16 00:00:00.0000, -1.263171887071210E+08, -3.858226867815290E+08, -6.615428931588589E+07,
2460210.500000000, A.D. 2023-Sep-23 00:00:00.0000, -1.153304663305430E+08, -3.887572772229226E+08, -6.628788421376055E+07,
2460217.500000000, A.D. 2023-Sep-30 00:00:00.0000, -1.042631040114923E+08, -3.914198614587796E+08, -6.637509026796305E+07,
2460224.500000000, A.D. 2023-Oct-07 00:00:00.0000, -9.312262034609151E+07, -3.938077458837082E+08, -6.641570549758677E+07,
2460231.500000000, A.D. 2023-Oct-14 00:00:00.0000, -8.191664582416517E+07, -3.959184697737461E+08, -6.640956896757223E+07,
2460238.500000000, A.D. 2023-Oct-21 00:00:00.0000, -7.065291365645382E+07, -3.977498125253567E+08, -6.635656156119999E+07,
2460245.500000000, A.D. 2023-Oct-28 00:00:00.0000, -5.933924950300457E+07, -3.992997991547223E+08, -6.625660663446134E+07,
2460252.500000000, A.D. 2023-Nov-04 00:00:00.0000, -4.798356137827391E+07, -4.005667048030614E+08, -6.610967049712446E+07,
2460259.500000000, A.D. 2023-Nov-11 00:00:00.0000, -3.659382958272880E+07, -4.015490588242292E+08, -6.591576278248167E+07,
2460266.500000000, A.D. 2023-Nov-18 00:00:00.0000, -2.517809647052256E+07, -4.022456484967476E+08, -6.567493672811458E+07,
2460273.500000000, A.D. 2023-Nov-25 00:00:00.0000, -1.374445601075667E+07, -4.026555223174205E+08, -6.538728936989442E+07,
2460280.500000000, A.D. 2023-Dec-02 00:00:00.0000, -2.301043145618255E+06, -4.027779928702693E+08, -6.505296165079075E+07,
2460287.500000000, A.D. 2023-Dec-09 00:00:00.0000, 9.143977099320171E+06, -4.026126393155755E+08, -6.467213845525298E+07,
2460294.500000000, A.D. 2023-Dec-16 00:00:00.0000, 2.058242100519223E+07, -4.021593094751938E+08, -6.424504859384146E+07,
2460301.500000000, A.D. 2023-Dec-23 00:00:00.0000, 3.200609836232477E+07, -4.014181208176904E+08, -6.377196471357554E+07,
2460308.500000000, A.D. 2023-Dec-30 00:00:00.0000, 4.340682410748723E+07, -4.003894592867988E+08, -6.325320292527604E+07,
2460315.500000000, A.D. 2024-Jan-06 00:00:00.0000, 5.477642758596295E+07, -3.990739783278409E+08, -6.268912217848346E+07,
2460322.500000000, A.D. 2024-Jan-13 00:00:00.0000, 6.610676257464416E+07, -3.974725999161126E+08, -6.208012382363194E+07,
2460329.500000000, A.D. 2024-Jan-20 00:00:00.0000, 7.738971925318319E+07, -3.955865145048378E+08, -6.142665122360256E+07,
2460336.500000000, A.D. 2024-Jan-27 00:00:00.0000, 8.861723605729274E+07, -3.934171792458429E+08, -6.072918917763895E+07,
2460343.500000000, A.D. 2024-Feb-03 00:00:00.0000, 9.978131094888519E+07, -3.909663154390036E+08, -5.998826319847608E+07,
2460350.500000000, A.D. 2024-Feb-10 00:00:00.0000, 1.108740123441135E+08, -3.882359055116643E+08, -5.920443869489153E+07,
2460357.500000000, A.D. 2024-Feb-17 00:00:00.0000, 1.218874898021956E+08, -3.852281895328156E+08, -5.837832007502970E+07,
2460364.500000000, A.D. 2024-Feb-24 00:00:00.0000, 1.328139844756761E+08, -3.819456612619265E+08, -5.751054977599131E+07,
2460371.500000000, A.D. 2024-Mar-02 00:00:00.0000, 1.436458393173071E+08, -3.783910637811264E+08, -5.660180722851074E+07,
2460378.500000000, A.D. 2024-Mar-09 00:00:00.0000, 1.543755091499668E+08, -3.745673847914664E+08, -5.565280777819124E+07,
2460385.500000000, A.D. 2024-Mar-16 00:00:00.0000, 1.649955709647340E+08, -3.704778513958025E+08, -5.466430158725956E+07,
2460392.500000000, A.D. 2024-Mar-23 00:00:00.0000, 1.754987343161152E+08, -3.661259232811189E+08, -5.363707242098829E+07,
2460399.500000000, A.D. 2024-Mar-30 00:00:00.0000, 1.858778495487736E+08, -3.615152843510809E+08, -5.257193612036107E+07,
2460406.500000000, A.D. 2024-Apr-06 00:00:00.0000, 1.961259140900648E+08, -3.566498362024880E+08, -5.146973906528588E+07,
2460413.500000000, A.D. 2024-Apr-13 00:00:00.0000, 2.062360803405530E+08, -3.515336926388690E+08, -5.033135689188489E+07,
2460420.500000000, A.D. 2024-Apr-20 00:00:00.0000, 2.162016641926642E+08, -3.461711725776562E+08, -4.915769316395850E+07,
2460427.500000000, A.D. 2024-Apr-27 00:00:00.0000, 2.260161526433830E+08, -3.405667919454768E+08, -4.794967791097024E+07,
2460434.500000000, A.D. 2024-May-04 00:00:00.0000, 2.356732105737873E+08, -3.347252552968593E+08, -4.670826610329627E+07,
2460441.500000000, A.D. 2024-May-11 00:00:00.0000, 2.451666869214689E+08, -3.286514472895514E+08, -4.543443609998302E+07,
2460448.500000000, A.D. 2024-May-18 00:00:00.0000, 2.544906203182887E+08, -3.223504240262570E+08, -4.412918807981573E+07,
2460455.500000000, A.D. 2024-May-25 00:00:00.0000, 2.636392442110010E+08, -3.158274043011982E+08, -4.279354246353829E+07,
2460462.500000000, A.D. 2024-Jun-01 00:00:00.0000, 2.726069915198671E+08, -3.090877608395131E+08, -4.142853834232531E+07,
2460469.500000000, A.D. 2024-Jun-08 00:00:00.0000, 2.813884990802715E+08, -3.021370115825509E+08, -4.003523194188753E+07,
2460476.500000000, A.D. 2024-Jun-15 00:00:00.0000, 2.899786122692106E+08, -2.949808105051042E+08, -3.861469511926384E+07,
2460483.500000000, A.D. 2024-Jun-22 00:00:00.0000, 2.983723888157819E+08, -2.876249368219535E+08, -3.716801370888042E+07,
2460490.500000000, A.D. 2024-Jun-29 00:00:00.0000, 3.065650996783491E+08, -2.800752844357376E+08, -3.569628567650118E+07,
2460497.500000000, A.D. 2024-Jul-06 00:00:00.0000, 3.145522296387170E+08, -2.723378541248858E+08, -3.420061952971570E+07,
2460504.500000000, A.D. 2024-Jul-13 00:00:00.0000, 3.223294795716447E+08, -2.644187456740726E+08, -3.268213293705057E+07,
2460511.500000000, A.D. 2024-Jul-20 00:00:00.0000, 3.298927684158261E+08, -2.563241488257539E+08, -3.114195128372158E+07,
2460518.500000000, A.D. 2024-Jul-27 00:00:00.0000, 3.372382342030230E+08, -2.480603340386167E+08, -2.958120618603532E+07,
2460525.500000000, A.D. 2024-Aug-03 00:00:00.0000, 3.443622344318230E+08, -2.396336434524950E+08, -2.800103402359392E+07,
2460532.500000000, A.D. 2024-Aug-10 00:00:00.0000, 3.512613459663380E+08, -2.310504820870129E+08, -2.640257450807789E+07,
2460539.500000000, A.D. 2024-Aug-17 00:00:00.0000, 3.579323645225906E+08, -2.223173092732442E+08, -2.478696929409997E+07,
2460546.500000000, A.D. 2024-Aug-24 00:00:00.0000, 3.643723037864149E+08, -2.134406303597025E+08, -2.315536063918929E+07,
2460553.500000000, A.D. 2024-Aug-31 00:00:00.0000, 3.705783942948104E+08, -2.044269887707485E+08, -2.150889013102894E+07,
2460560.500000000, A.D. 2024-Sep-07 00:00:00.0000, 3.765480824638907E+08, -1.952829583047440E+08, -1.984869750749633E+07,
2460567.500000000, A.D. 2024-Sep-14 00:00:00.0000, 3.822790298696266E+08, -1.860151346884920E+08, -1.817591949811457E+07,
2460574.500000000, A.D. 2024-Sep-21 00:00:00.0000, 3.877691107758446E+08, -1.766301259891718E+08, -1.649168846905503E+07,
2460581.500000000, A.D. 2024-Sep-28 00:00:00.0000, 3.930164074430467E+08, -1.671345451248351E+08, -1.479713109240568E+07,
2460588.500000000, A.D. 2024-Oct-05 00:00:00.0000, 3.980192069067787E+08, -1.575350044814645E+08, -1.309336737745918E+07,
2460595.500000000, A.D. 2024-Oct-12 00:00:00.0000, 4.027759988855758E+08, -1.478381096641810E+08, -1.138150978828517E+07,
2460602.500000000, A.D. 2024-Oct-19 00:00:00.0000, 4.072854730890996E+08, -1.380504526607621E+08, -9.662662309617236E+06,
2460609.500000000, A.D. 2024-Oct-26 00:00:00.0000, 4.115465159149673E+08, -1.281786052249996E+08, -7.937919523742214E+06,
2460616.500000000, A.D. 2024-Nov-02 00:00:00.0000, 4.155582068118398E+08, -1.182291126328728E+08, -6.208365733997464E+06,
2460623.500000000, A.D. 2024-Nov-09 00:00:00.0000, 4.193198144249569E+08, -1.082084877941594E+08, -4.475074141674682E+06,
2460630.500000000, A.D. 2024-Nov-16 00:00:00.0000, 4.228307925685697E+08, -9.812320572149438E+07, -2.739106078130372E+06,
2460637.500000000, A.D. 2024-Nov-23 00:00:00.0000, 4.260907760891046E+08, -8.797969840786514E+07, -1.001510299862113E+06,
2460644.500000000, A.D. 2024-Nov-30 00:00:00.0000, 4.290995768421498E+08, -7.778435015436973E+07, 7.366776314113066E+05,
2460651.500000000, A.D. 2024-Dec-07 00:00:00.0000, 4.318571802164052E+08, -6.754349292355698E+07, 2.474435880087022E+06,
2460658.500000000, A.D. 2024-Dec-14 00:00:00.0000, 4.343637415325547E+08, -5.726340048764143E+07, 4.210756943510156E+06,
2460665.500000000, A.D. 2024-Dec-21 00:00:00.0000, 4.366195800192780E+08, -4.695028260737693E+07, 5.944648446976619E+06,
2460672.500000000, A.D. 2024-Dec-28 00:00:00.0000, 4.386251723573413E+08, -3.661028220647902E+07, 7.675133704915932E+06,
2460679.500000000, A.D. 2025-Jan-04 00:00:00.0000, 4.403811484033462E+08, -2.624947316151737E+07, 9.401252005660333E+06,
2460686.500000000, A.D. 2025-Jan-11 00:00:00.0000, 4.418882872858387E+08, -1.587385704220227E+07, 1.112205892418736E+07,
2460693.500000000, A.D. 2025-Jan-18 00:00:00.0000, 4.431475129702433E+08, -5.489359715371316E+06, 1.283662667362957E+07,
2460700.500000000, A.D. 2025-Jan-25 00:00:00.0000, 4.441598895481298E+08, 4.898171718948700E+06, 1.454404443617576E+07,
2460707.500000000, A.D. 2025-Feb-01 00:00:00.0000, 4.449266164513035E+08, 1.528297163626684E+07, 1.624341865525238E+07,
$$EOE